ONEWEB-0346             
1 49212U 21083AC  24092.88316394  .00000040  00000+0  69762-4 0  9998
2 49212  87.9163 135.9753 0002497  93.9349 266.2069 13.18685593125004
ONEWEB-0348             
1 49213U 21083AD  24093.44065550  .00000087  00000+0  18155-3 0  9997
2 49213  87.9151  74.7786 0002655  93.1451 266.9986 13.20768028131752
ONEWEB-0350             
1 49214U 21083AE  24093.46563139  .00000055  00000+0  11630-3 0  9992
2 49214  87.8907 120.6148 0002269 101.0627 259.0757 13.13469328126463
ONEWEB-0351             
1 49215U 21083AF  24092.90405580  .00000100  00000+0  21352-3 0  9999
2 49215  87.9145  74.8885 0000985  73.1590 286.9651 13.20770334131657
ONEWEB-0352             
1 49216U 21083AG  24092.53245605  .00000297  00000+0  77960-3 0  9992
2 49216  87.8911 120.8295 0001695  96.6625 263.4697 13.13470291126434
ONEWEB-0354             
1 49217U 21083AH  24093.45958962 -.00000182  00000+0 -47863-3 0  9996
2 49217  87.9149  74.7596 0002016  96.8624 263.2739 13.20771336131768
ONEWEB-0355             
1 49218U 21083AJ  24092.56259433 -.00000283  00000+0 -81098-3 0  9995
2 49218  87.8912 120.8226 0001913  99.0270 261.1075 13.13470946125012
ONEWEB-0357             
1 49219U 21083AK  24093.45645403  .00000116  00000+0  25346-3 0  9998
2 49219  87.9147  74.7810 0002012  88.0834 272.0529 13.20770500131755
